[{"OBJECT_NAME":"LINGQIAO VIDEO A","OBJECT_ID":"2015-057B","EPOCH":"2026-03-09T23:59:14.455968","MEAN_MOTION":14.77240393,"ECCENTRICITY":0.00154698,"INCLINATION":97.6615,"RA_OF_ASC_NODE":68.7182,"ARG_OF_PERICENTER":229.1466,"MEAN_ANOMALY":130.8405,"EPHEMERIS_TYPE":0,"CLASSIFICATION_TYPE":"U","NORAD_CAT_ID":40959,"ELEMENT_SET_NO":999,"REV_AT_EPOCH":56076,"BSTAR":0.00010661468,"MEAN_MOTION_DOT":7.08e-6,"MEAN_MOTION_DDOT":0},{"OBJECT_NAME":"TITAN 3C TRANSTAGE DEB","OBJECT_ID":"1965-082H","EPOCH":"2026-03-09T13:21:20.248704","MEAN_MOTION":14.77322399,"ECCENTRICITY":0.00025781,"INCLINATION":32.3083,"RA_OF_ASC_NODE":235.0126,"ARG_OF_PERICENTER":57.2145,"MEAN_ANOMALY":302.8756,"EPHEMERIS_TYPE":0,"CLASSIFICATION_TYPE":"U","NORAD_CAT_ID":1646,"ELEMENT_SET_NO":999,"REV_AT_EPOCH":20543,"BSTAR":0.00022150083,"MEAN_MOTION_DOT":1.64e-5,"MEAN_MOTION_DDOT":0}]
